SAOCOM 1A               
1 43641U 18076A   26109.26683889 -.00000028  00000+0  30220-5 0  9990
2 43641  97.8892 296.8665 0001468  91.6607 268.4774 14.82147104407374
H-2A R/B                
1 43682U 18084L   26109.08947504  .00016534  00000+0  37401-3 0  9995
2 43682  98.8661 335.1581 0023122 241.0733 118.8191 15.42984199412007
SAOCOM 1B               
1 46265U 20059A   26109.29806000  .00000176  00000+0  28642-4 0  9991
2 46265  97.8886 295.9917 0001511  83.7955 276.3431 14.82161910304767
CSS (TIANHE)            
1 48274U 21035A   26109.26029495  .00024079  00000+0  26503-3 0  9991
2 48274  41.4678 320.9358 0006367 236.9235 123.0994 15.62553105283957
COSMOS 2550             
1 48865U 21056A   26109.20685223 -.00000198  00000+0 -20213-6 0  9994
2 48865  67.1423 278.3189 0008316 269.4083  90.6119 15.33833399269677
CZ-2C R/B               
1 52794U 22058K   26109.29736207  .00038840  00000+0  50810-3 0  9997
2 52794  50.1860 108.9110 0039853  14.6028 345.6085 15.57231303216457
CZ-2C R/B               
1 54039U 22132E   26109.26110301  .00044109  00000+0  43663-3 0  9995
2 54039  97.2940 113.9299 0013157 301.9697  58.0284 15.65620243196715
GSLV R/B                
1 54149U 22138AN  26109.09806854  .00001417  00000+0  12009-3 0  9994
2 54149  87.3828 152.8259 0021688  11.9275 348.2465 14.97001524189972
XRISM                   
1 57800U 23137A   26109.18105546  .00004244  00000+0  23594-3 0  9993
2 57800  31.0033  21.6663 0007484  87.1735 272.9760 15.11941185143928
ACS3                    
1 59588U 24077B   26109.07970916  .00025202  00000+0  19457-1 0  9999
2 59588  97.1863  41.1236 0069451 354.8334   5.2106 13.91597884 99819
HTV-X1                  
1 66174U 25241A   26109.08011388  .00005608  00000+0  18638-3 0  9992
2 66174  51.6367 238.2858 0007693 329.3091  30.7439 15.32689515 27136
SZ-21 MODULE            
1 66515U 25246C   26109.27037252  .00036019  00000+0  27193-3 0  9991
2 66515  41.4738 312.9436 0004460 291.9910  68.0459 15.71706629 24456
