[{"OBJECT_NAME":"SAOCOM 1A","OBJECT_ID":"2018-076A","EPOCH":"2026-04-19T06:24:14.880096","MEAN_MOTION":14.82147104,"ECCENTRICITY":0.00014681,"INCLINATION":97.8892,"RA_OF_ASC_NODE":296.8665,"ARG_OF_PERICENTER":91.6607,"MEAN_ANOMALY":268.4774,"EPHEMERIS_TYPE":0,"CLASSIFICATION_TYPE":"U","NORAD_CAT_ID":43641,"ELEMENT_SET_NO":999,"REV_AT_EPOCH":40737,"BSTAR":3.022007e-6,"MEAN_MOTION_DOT":-2.8e-7,"MEAN_MOTION_DDOT":0},{"OBJECT_NAME":"H-2A R/B","OBJECT_ID":"2018-084L","EPOCH":"2026-04-19T02:08:50.643456","MEAN_MOTION":15.42984199,"ECCENTRICITY":0.00231222,"INCLINATION":98.8661,"RA_OF_ASC_NODE":335.1581,"ARG_OF_PERICENTER":241.0733,"MEAN_ANOMALY":118.8191,"EPHEMERIS_TYPE":0,"CLASSIFICATION_TYPE":"U","NORAD_CAT_ID":43682,"ELEMENT_SET_NO":999,"REV_AT_EPOCH":41200,"BSTAR":0.00037401453,"MEAN_MOTION_DOT":0.00016534,"MEAN_MOTION_DDOT":0},{"OBJECT_NAME":"SAOCOM 1B","OBJECT_ID":"2020-059A","EPOCH":"2026-04-19T07:09:12.384000","MEAN_MOTION":14.8216191,"ECCENTRICITY":0.00015117,"INCLINATION":97.8886,"RA_OF_ASC_NODE":295.9917,"ARG_OF_PERICENTER":83.7955,"MEAN_ANOMALY":276.3431,"EPHEMERIS_TYPE":0,"CLASSIFICATION_TYPE":"U","NORAD_CAT_ID":46265,"ELEMENT_SET_NO":999,"REV_AT_EPOCH":30476,"BSTAR":2.8642283e-5,"MEAN_MOTION_DOT":1.76e-6,"MEAN_MOTION_DDOT":0},{"OBJECT_NAME":"CSS (TIANHE)","OBJECT_ID":"2021-035A","EPOCH":"2026-04-19T06:14:49.483680","MEAN_MOTION":15.62553105,"ECCENTRICITY":0.00063676,"INCLINATION":41.4678,"RA_OF_ASC_NODE":320.9358,"ARG_OF_PERICENTER":236.9235,"MEAN_ANOMALY":123.0994,"EPHEMERIS_TYPE":0,"CLASSIFICATION_TYPE":"U","NORAD_CAT_ID":48274,"ELEMENT_SET_NO":999,"REV_AT_EPOCH":28395,"BSTAR":0.00026503236,"MEAN_MOTION_DOT":0.00024079,"MEAN_MOTION_DDOT":0},{"OBJECT_NAME":"COSMOS 2550","OBJECT_ID":"2021-056A","EPOCH":"2026-04-19T04:57:52.032672","MEAN_MOTION":15.33833399,"ECCENTRICITY":0.00083162,"INCLINATION":67.1423,"RA_OF_ASC_NODE":278.3189,"ARG_OF_PERICENTER":269.4083,"MEAN_ANOMALY":90.6119,"EPHEMERIS_TYPE":0,"CLASSIFICATION_TYPE":"U","NORAD_CAT_ID":48865,"ELEMENT_SET_NO":999,"REV_AT_EPOCH":26967,"BSTAR":-2.02134e-7,"MEAN_MOTION_DOT":-1.98e-6,"MEAN_MOTION_DDOT":0},{"OBJECT_NAME":"CZ-2C R/B","OBJECT_ID":"2022-058K","EPOCH":"2026-04-19T07:08:12.082848","MEAN_MOTION":15.57231303,"ECCENTRICITY":0.00398536,"INCLINATION":50.186,"RA_OF_ASC_NODE":108.911,"ARG_OF_PERICENTER":14.6028,"MEAN_ANOMALY":345.6085,"EPHEMERIS_TYPE":0,"CLASSIFICATION_TYPE":"U","NORAD_CAT_ID":52794,"ELEMENT_SET_NO":999,"REV_AT_EPOCH":21645,"BSTAR":0.00050809688,"MEAN_MOTION_DOT":0.0003884,"MEAN_MOTION_DDOT":0},{"OBJECT_NAME":"CZ-2C R/B","OBJECT_ID":"2022-132E","EPOCH":"2026-04-19T06:15:59.300064","MEAN_MOTION":15.65620243,"ECCENTRICITY":0.00131575,"INCLINATION":97.294,"RA_OF_ASC_NODE":113.9299,"ARG_OF_PERICENTER":301.9697,"MEAN_ANOMALY":58.0284,"EPHEMERIS_TYPE":0,"CLASSIFICATION_TYPE":"U","NORAD_CAT_ID":54039,"ELEMENT_SET_NO":999,"REV_AT_EPOCH":19671,"BSTAR":0.00043662893,"MEAN_MOTION_DOT":0.00044109,"MEAN_MOTION_DDOT":0},{"OBJECT_NAME":"GSLV R/B","OBJECT_ID":"2022-138AN","EPOCH":"2026-04-19T02:21:13.121856","MEAN_MOTION":14.97001524,"ECCENTRICITY":0.00216888,"INCLINATION":87.3828,"RA_OF_ASC_NODE":152.8259,"ARG_OF_PERICENTER":11.9275,"MEAN_ANOMALY":348.2465,"EPHEMERIS_TYPE":0,"CLASSIFICATION_TYPE":"U","NORAD_CAT_ID":54149,"ELEMENT_SET_NO":999,"REV_AT_EPOCH":18997,"BSTAR":0.00012009301,"MEAN_MOTION_DOT":1.417e-5,"MEAN_MOTION_DDOT":0},{"OBJECT_NAME":"XRISM","OBJECT_ID":"2023-137A","EPOCH":"2026-04-19T04:20:43.191744","MEAN_MOTION":15.11941185,"ECCENTRICITY":0.0007484,"INCLINATION":31.0033,"RA_OF_ASC_NODE":21.6663,"ARG_OF_PERICENTER":87.1735,"MEAN_ANOMALY":272.976,"EPHEMERIS_TYPE":0,"CLASSIFICATION_TYPE":"U","NORAD_CAT_ID":57800,"ELEMENT_SET_NO":999,"REV_AT_EPOCH":14392,"BSTAR":0.00023593803,"MEAN_MOTION_DOT":4.244e-5,"MEAN_MOTION_DDOT":0},{"OBJECT_NAME":"ACS3","OBJECT_ID":"2024-077B","EPOCH":"2026-04-19T01:54:46.871424","MEAN_MOTION":13.91597884,"ECCENTRICITY":0.00694519,"INCLINATION":97.1863,"RA_OF_ASC_NODE":41.1236,"ARG_OF_PERICENTER":354.8334,"MEAN_ANOMALY":5.2106,"EPHEMERIS_TYPE":0,"CLASSIFICATION_TYPE":"U","NORAD_CAT_ID":59588,"ELEMENT_SET_NO":999,"REV_AT_EPOCH":9981,"BSTAR":0.019457257,"MEAN_MOTION_DOT":0.00025202,"MEAN_MOTION_DDOT":0},{"OBJECT_NAME":"HTV-X1","OBJECT_ID":"2025-241A","EPOCH":"2026-04-19T01:55:21.839232","MEAN_MOTION":15.32689515,"ECCENTRICITY":0.0007693,"INCLINATION":51.6367,"RA_OF_ASC_NODE":238.2858,"ARG_OF_PERICENTER":329.3091,"MEAN_ANOMALY":30.7439,"EPHEMERIS_TYPE":0,"CLASSIFICATION_TYPE":"U","NORAD_CAT_ID":66174,"ELEMENT_SET_NO":999,"REV_AT_EPOCH":2713,"BSTAR":0.00018637959,"MEAN_MOTION_DOT":5.608e-5,"MEAN_MOTION_DDOT":0},{"OBJECT_NAME":"SZ-21 MODULE","OBJECT_ID":"2025-246C","EPOCH":"2026-04-19T06:29:20.185728","MEAN_MOTION":15.71706629,"ECCENTRICITY":0.00044601,"INCLINATION":41.4738,"RA_OF_ASC_NODE":312.9436,"ARG_OF_PERICENTER":291.991,"MEAN_ANOMALY":68.0459,"EPHEMERIS_TYPE":0,"CLASSIFICATION_TYPE":"U","NORAD_CAT_ID":66515,"ELEMENT_SET_NO":999,"REV_AT_EPOCH":2445,"BSTAR":0.00027193272,"MEAN_MOTION_DOT":0.00036019,"MEAN_MOTION_DDOT":0}]
